CCSDS_OMM_VERS = 2.0
CREATION_DATE  = 
ORIGINATOR     = 

OBJECT_NAME    = TIANQI-37
OBJECT_ID      = 2026-010A
CENTER_NAME    = EARTH
REF_FRAME      = TEME
TIME_SYSTEM    = UTC
MEAN_ELEMENT_THEORY = SGP/SGP4

EPOCH          = 2026-02-08T06:39:39.190752
MEAN_MOTION    = 14.13528441
ECCENTRICITY   = .0012909
INCLINATION    = 44.9825
RA_OF_ASC_NODE = 296.6529
ARG_OF_PERICENTER = 70.2546
MEAN_ANOMALY   = 289.9683

EPHEMERIS_TYPE = 0
CLASSIFICATION_TYPE = U
NORAD_CAT_ID   = 67476
ELEMENT_SET_NO = 999
REV_AT_EPOCH   = 332
BSTAR          = .15719E-3
MEAN_MOTION_DOT = .165E-5
MEAN_MOTION_DDOT = 0

CCSDS_OMM_VERS = 2.0
CREATION_DATE  = 
ORIGINATOR     = 

OBJECT_NAME    = TIANQI-38
OBJECT_ID      = 2026-010B
CENTER_NAME    = EARTH
REF_FRAME      = TEME
TIME_SYSTEM    = UTC
MEAN_ELEMENT_THEORY = SGP/SGP4

EPOCH          = 2026-02-08T06:33:16.657344
MEAN_MOTION    = 14.13905796
ECCENTRICITY   = .0011754
INCLINATION    = 44.9788
RA_OF_ASC_NODE = 296.6199
ARG_OF_PERICENTER = 75.6443
MEAN_ANOMALY   = 284.5700

EPHEMERIS_TYPE = 0
CLASSIFICATION_TYPE = U
NORAD_CAT_ID   = 67477
ELEMENT_SET_NO = 999
REV_AT_EPOCH   = 332
BSTAR          = .17865E-3
MEAN_MOTION_DOT = .208E-5
MEAN_MOTION_DDOT = 0

CCSDS_OMM_VERS = 2.0
CREATION_DATE  = 
ORIGINATOR     = 

OBJECT_NAME    = TIANQI-39
OBJECT_ID      = 2026-010C
CENTER_NAME    = EARTH
REF_FRAME      = TEME
TIME_SYSTEM    = UTC
MEAN_ELEMENT_THEORY = SGP/SGP4

EPOCH          = 2026-02-08T06:41:10.923360
MEAN_MOTION    = 14.13055169
ECCENTRICITY   = .0016488
INCLINATION    = 44.9839
RA_OF_ASC_NODE = 296.6613
ARG_OF_PERICENTER = 82.3005
MEAN_ANOMALY   = 277.9705

EPHEMERIS_TYPE = 0
CLASSIFICATION_TYPE = U
NORAD_CAT_ID   = 67478
ELEMENT_SET_NO = 999
REV_AT_EPOCH   = 332
BSTAR          = .15988E-3
MEAN_MOTION_DOT = .167E-5
MEAN_MOTION_DDOT = 0

CCSDS_OMM_VERS = 2.0
CREATION_DATE  = 
ORIGINATOR     = 

OBJECT_NAME    = TIANQI-40
OBJECT_ID      = 2026-010D
CENTER_NAME    = EARTH
REF_FRAME      = TEME
TIME_SYSTEM    = UTC
MEAN_ELEMENT_THEORY = SGP/SGP4

EPOCH          = 2026-02-09T04:36:40.071744
MEAN_MOTION    = 14.13182235
ECCENTRICITY   = .0011741
INCLINATION    = 44.9786
RA_OF_ASC_NODE = 292.4342
ARG_OF_PERICENTER = 80.4003
MEAN_ANOMALY   = 279.8161

EPHEMERIS_TYPE = 0
CLASSIFICATION_TYPE = U
NORAD_CAT_ID   = 67479
ELEMENT_SET_NO = 999
REV_AT_EPOCH   = 345
BSTAR          = .15351E-3
MEAN_MOTION_DOT = .156E-5
MEAN_MOTION_DDOT = 0

CCSDS_OMM_VERS = 2.0
CREATION_DATE  = 
ORIGINATOR     = 

OBJECT_NAME    = SZ-20 MODULE
OBJECT_ID      = 2025-082C
CENTER_NAME    = EARTH
REF_FRAME      = TEME
TIME_SYSTEM    = UTC
MEAN_ELEMENT_THEORY = SGP/SGP4

EPOCH          = 2026-02-11T05:56:24.962496
MEAN_MOTION    = 15.62660831
ECCENTRICITY   = .00072224
INCLINATION    = 41.4802
RA_OF_ASC_NODE = 8.5083
ARG_OF_PERICENTER = 155.9859
MEAN_ANOMALY   = 204.1318

EPHEMERIS_TYPE = 0
CLASSIFICATION_TYPE = U
NORAD_CAT_ID   = 67481
ELEMENT_SET_NO = 999
REV_AT_EPOCH   = 27348
BSTAR          = .30508455E-3
MEAN_MOTION_DOT = .27909E-3
MEAN_MOTION_DDOT = 0

CCSDS_OMM_VERS = 2.0
CREATION_DATE  = 
ORIGINATOR     = 

OBJECT_NAME    = 2025-313BE
OBJECT_ID      = 2025-313BE
CENTER_NAME    = EARTH
REF_FRAME      = TEME
TIME_SYSTEM    = UTC
MEAN_ELEMENT_THEORY = SGP/SGP4

EPOCH          = 2026-02-11T04:01:52.922496
MEAN_MOTION    = 15.25718176
ECCENTRICITY   = .00084605
INCLINATION    = 97.4061
RA_OF_ASC_NODE = 119.0169
ARG_OF_PERICENTER = 81.6321
MEAN_ANOMALY   = 278.5876

EPHEMERIS_TYPE = 0
CLASSIFICATION_TYPE = U
NORAD_CAT_ID   = 67482
ELEMENT_SET_NO = 999
REV_AT_EPOCH   = 392
BSTAR          = .26101344E-2
MEAN_MOTION_DOT = .67073E-3
MEAN_MOTION_DDOT = 0

CCSDS_OMM_VERS = 2.0
CREATION_DATE  = 
ORIGINATOR     = 

OBJECT_NAME    = ION SCV-021
OBJECT_ID      = 2025-276DT
CENTER_NAME    = EARTH
REF_FRAME      = TEME
TIME_SYSTEM    = UTC
MEAN_ELEMENT_THEORY = SGP/SGP4

EPOCH          = 2026-02-03T04:28:31.154016
MEAN_MOTION    = 14.97059561
ECCENTRICITY   = .00113647
INCLINATION    = 97.5347
RA_OF_ASC_NODE = 109.4970
ARG_OF_PERICENTER = 207.9438
MEAN_ANOMALY   = 152.1175

EPHEMERIS_TYPE = 0
CLASSIFICATION_TYPE = U
NORAD_CAT_ID   = 67483
ELEMENT_SET_NO = 999
REV_AT_EPOCH   = 255
BSTAR          = -.1218394E-1
MEAN_MOTION_DOT = -.13788E-2
MEAN_MOTION_DDOT = 0

CCSDS_OMM_VERS = 2.0
CREATION_DATE  = 
ORIGINATOR     = 

OBJECT_NAME    = STARLINK-36551
OBJECT_ID      = 2026-012A
CENTER_NAME    = EARTH
REF_FRAME      = TEME
TIME_SYSTEM    = UTC
MEAN_ELEMENT_THEORY = SGP/SGP4

EPOCH          = 2026-02-11T06:00:00.999648
MEAN_MOTION    = 15.50448658
ECCENTRICITY   = .00011348
INCLINATION    = 43.0000
RA_OF_ASC_NODE = 104.6385
ARG_OF_PERICENTER = 282.9365
MEAN_ANOMALY   = 223.3614

EPHEMERIS_TYPE = 0
CLASSIFICATION_TYPE = U
NORAD_CAT_ID   = 67493
ELEMENT_SET_NO = 999
REV_AT_EPOCH   = 482
BSTAR          = -.36784598E-1
MEAN_MOTION_DOT = -.1926921E-1
MEAN_MOTION_DDOT = 0

CCSDS_OMM_VERS = 2.0
CREATION_DATE  = 
ORIGINATOR     = 

OBJECT_NAME    = STARLINK-36396
OBJECT_ID      = 2026-012B
CENTER_NAME    = EARTH
REF_FRAME      = TEME
TIME_SYSTEM    = UTC
MEAN_ELEMENT_THEORY = SGP/SGP4

EPOCH          = 2026-02-11T05:14:28.812192
MEAN_MOTION    = 15.50631065
ECCENTRICITY   = .00006016
INCLINATION    = 43.0000
RA_OF_ASC_NODE = 105.6350
ARG_OF_PERICENTER = 329.3100
MEAN_ANOMALY   = 30.7725

EPHEMERIS_TYPE = 0
CLASSIFICATION_TYPE = U
NORAD_CAT_ID   = 67494
ELEMENT_SET_NO = 999
REV_AT_EPOCH   = 369
BSTAR          = .16589448E-2
MEAN_MOTION_DOT = .98394E-3
MEAN_MOTION_DDOT = 0

CCSDS_OMM_VERS = 2.0
CREATION_DATE  = 
ORIGINATOR     = 

OBJECT_NAME    = STARLINK-36550
OBJECT_ID      = 2026-012C
CENTER_NAME    = EARTH
REF_FRAME      = TEME
TIME_SYSTEM    = UTC
MEAN_ELEMENT_THEORY = SGP/SGP4

EPOCH          = 2026-02-11T06:00:00.999648
MEAN_MOTION    = 15.50609545
ECCENTRICITY   = .00011767
INCLINATION    = 43.0002
RA_OF_ASC_NODE = 104.9461
ARG_OF_PERICENTER = 259.2212
MEAN_ANOMALY   = 122.2611

EPHEMERIS_TYPE = 0
CLASSIFICATION_TYPE = U
NORAD_CAT_ID   = 67495
ELEMENT_SET_NO = 999
REV_AT_EPOCH   = 482
BSTAR          = -.17259079E-2
MEAN_MOTION_DOT = -.100411E-2
MEAN_MOTION_DDOT = 0

CCSDS_OMM_VERS = 2.0
CREATION_DATE  = 
ORIGINATOR     = 

OBJECT_NAME    = STARLINK-36534
OBJECT_ID      = 2026-012D
CENTER_NAME    = EARTH
REF_FRAME      = TEME
TIME_SYSTEM    = UTC
MEAN_ELEMENT_THEORY = SGP/SGP4

EPOCH          = 2026-02-11T06:00:00.999648
MEAN_MOTION    = 15.50592576
ECCENTRICITY   = .00017098
INCLINATION    = 43.0001
RA_OF_ASC_NODE = 104.6577
ARG_OF_PERICENTER = 278.7717
MEAN_ANOMALY   = 219.0501

EPHEMERIS_TYPE = 0
CLASSIFICATION_TYPE = U
NORAD_CAT_ID   = 67496
ELEMENT_SET_NO = 999
REV_AT_EPOCH   = 476
BSTAR          = -.11792125E-2
MEAN_MOTION_DOT = -.68949E-3
MEAN_MOTION_DDOT = 0

CCSDS_OMM_VERS = 2.0
CREATION_DATE  = 
ORIGINATOR     = 

OBJECT_NAME    = STARLINK-36555
OBJECT_ID      = 2026-012E
CENTER_NAME    = EARTH
REF_FRAME      = TEME
TIME_SYSTEM    = UTC
MEAN_ELEMENT_THEORY = SGP/SGP4

EPOCH          = 2026-02-11T06:00:00.999648
MEAN_MOTION    = 15.50512362
ECCENTRICITY   = .00009085
INCLINATION    = 42.9999
RA_OF_ASC_NODE = 104.6756
ARG_OF_PERICENTER = 288.1272
MEAN_ANOMALY   = 202.7331

EPHEMERIS_TYPE = 0
CLASSIFICATION_TYPE = U
NORAD_CAT_ID   = 67497
ELEMENT_SET_NO = 999
REV_AT_EPOCH   = 482
BSTAR          = .15447282E-2
MEAN_MOTION_DOT = .91124E-3
MEAN_MOTION_DDOT = 0

