TIANQI-37               
1 67476U 26010A   26039.27753693  .00000165  00000+0  15719-3 0  9998
2 67476  44.9825 296.6529 0012909  70.2546 289.9683 14.13528441  3324
TIANQI-38               
1 67477U 26010B   26039.27310946  .00000208  00000+0  17865-3 0  9991
2 67477  44.9788 296.6199 0011754  75.6443 284.5700 14.13905796  3321
TIANQI-39               
1 67478U 26010C   26039.27859865  .00000167  00000+0  15988-3 0  9998
2 67478  44.9839 296.6613 0016488  82.3005 277.9705 14.13055169  3329
TIANQI-40               
1 67479U 26010D   26040.19213046  .00000156  00000+0  15351-3 0  9999
2 67479  44.9786 292.4342 0011741  80.4003 279.8161 14.13182235  3454
SZ-20 MODULE            
1 67481U 25082C   26042.24751114  .00027909  00000+0  30508-3 0  9997
2 67481  41.4802   8.5083 0007222 155.9859 204.1318 15.62660831273487
2025-313BE              
1 67482U 25313BE  26042.16797364  .00067073  00000+0  26101-2 0  9992
2 67482  97.4061 119.0169 0008460  81.6321 278.5876 15.25718176  3922
ION SCV-021             
1 67483U 25276DT  26034.18647169 -.00137880  00000+0 -12184-1 0  9992
2 67483  97.5347 109.4970 0011364 207.9438 152.1175 14.97059561  2554
STARLINK-36551          
1 67493U 26012A   26042.25001157 -.01926921  00000+0 -36785-1 0  9996
2 67493  43.0000 104.6385 0001134 282.9365 223.3614 15.50448658  4820
STARLINK-36396          
1 67494U 26012B   26042.21838903  .00098394  00000+0  16589-2 0  9992
2 67494  43.0000 105.6350 0000601 329.3100  30.7725 15.50631065  3698
STARLINK-36550          
1 67495U 26012C   26042.25001157 -.00100411  00000+0 -17259-2 0  9991
2 67495  43.0002 104.9461 0001176 259.2212 122.2611 15.50609545  4824
STARLINK-36534          
1 67496U 26012D   26042.25001157 -.00068949  00000+0 -11792-2 0  9997
2 67496  43.0001 104.6577 0001709 278.7717 219.0501 15.50592576  4768
STARLINK-36555          
1 67497U 26012E   26042.25001157  .00091124  00000+0  15447-2 0  9998
2 67497  42.9999 104.6756 0000908 288.1272 202.7331 15.50512362  4825
